NORAD_CAT_ID,OBJECT_NAME,OBJECT_TYPE,EPOCH,MEAN_MOTION,ECCENTRICITY,INCLINATION,RA_OF_ASC_NODE,ARG_OF_PERICENTER,MEAN_ANOMALY,BSTAR,MEAN_MOTION_DOT,MEAN_MOTION_DDOT,TLE_LINE0,TLE_LINE1,TLE_LINE2,SEMIMAJOR_AXIS,PERIOD,APOGEE,PERIGEE,DECAYED
55771.0,STARLINK-5591,PAYLOAD,2024-03-30 18:23:08,14.98360906,0.0002462,70.001,211.8869,261.8414,98.2466,-0.00058703,-7.096e-05,0.0,0 STARLINK-5591,1 55771U 23028AG  24090.76607002 -.00007096  00000-0 -58703-3 0  9993,2 55771  70.0010 211.8869 0002462 261.8414  98.2466 14.98360906 60344,6950.097,96.105,573.673,570.251,0.0
55771.0,STARLINK-5591,PAYLOAD,2024-03-31 00:47:41,14.98328852,0.0003003,70.0009,211.2132,273.365,86.7165,-3.1223e-06,-1.3e-06,0.0,0 STARLINK-5591,1 55771U 23028AG  24091.03311727 -.00000130  00000-0 -31223-5 0  9992,2 55771  70.0009 211.2132 0003003 273.3650  86.7165 14.98328852 60387,6950.196,96.107,574.149,569.974,0.0
55771.0,STARLINK-5591,PAYLOAD,2024-03-31 13:36:45,14.98332717,0.0003063,70.0008,209.8666,269.6567,90.4241,4.5896e-05,4.55e-06,0.0,0 STARLINK-5591,1 55771U 23028AG  24091.56719223  .00000455  00000-0  45896-4 0  9991,2 55771  70.0008 209.8666 0003063 269.6567  90.4241 14.98332717 60463,6950.184,96.107,574.178,569.921,0.0
55771.0,STARLINK-5591,PAYLOAD,2024-03-31 18:25:09,14.98337799,0.0003104,70.0009,209.3619,271.0217,89.0587,8.1102e-05,8.75e-06,0.0,0 STARLINK-5591,1 55771U 23028AG  24091.76746738  .00000875  00000-0  81102-4 0  9990,2 55771  70.0009 209.3619 0003104 271.0217  89.0587 14.98337799 60497,6950.169,96.106,574.191,569.876,0.0
55771.0,STARLINK-5591,PAYLOAD,2024-04-01 00:49:42,14.98329059,0.0002826,70.0041,208.6884,272.9547,87.1289,-5.1408e-06,-1.54e-06,0.0,0 STARLINK-5591,1 55771U 23028AG  24092.03451513 -.00000154  00000-0 -51408-5 0  9994,2 55771  70.0041 208.6884 0002826 272.9547  87.1289 14.98329059 60538,6950.196,96.107,574.025,570.097,0.0
55771.0,STARLINK-5591,PAYLOAD,2024-04-01 13:38:47,14.98322556,0.0002587,70.0023,207.3434,270.5721,89.5142,-3.5831e-05,-5.2e-06,0.0,0 STARLINK-5591,1 55771U 23028AG  24092.56860209 -.00000520  00000-0 -35831-4 0  9996,2 55771  70.0023 207.3434 0002587 270.5721  89.5142 14.98322556 60615,6950.216,96.107,573.879,570.283,0.0
55771.0,STARLINK-5591,PAYLOAD,2024-04-02 10:28:31,14.9833604,0.0002843,70.0023,205.1558,268.2165,91.8668,2.5556e-05,2.12e-06,0.0,0 STARLINK-5591,1 55771U 23028AG  24093.43647283  .00000212  00000-0  25556-4 0  9997,2 55771  70.0023 205.1558 0002843 268.2165  91.8668 14.98336040 60745,6950.174,96.107,574.015,570.063,0.0
55771.0,STARLINK-5591,PAYLOAD,2024-04-02 13:40:47,14.98336274,0.0002835,70.0021,204.8191,267.4757,92.6078,6.894e-05,7.3e-06,0.0,0 STARLINK-5591,1 55771U 23028AG  24093.56999089  .00000730  00000-0  68940-4 0  9994,2 55771  70.0021 204.8191 0002835 267.4757  92.6078 14.98336274 60766,6950.173,96.107,574.009,570.068,0.0
55771.0,STARLINK-5591,PAYLOAD,2024-04-02 16:53:03,14.98335283,0.0002902,70.0018,204.4822,268.7693,91.3133,5.3909e-05,5.5e-06,0.0,0 STARLINK-5591,1 55771U 23028AG  24093.70351149  .00000550  00000-0  53909-4 0  9998,2 55771  70.0018 204.4822 0002902 268.7693  91.3133 14.98335283 60786,6950.177,96.107,574.058,570.025,0.0
55771.0,STARLINK-5591,PAYLOAD,2024-04-03 13:42:48,14.98328386,0.0003028,70.0008,202.2916,267.4331,92.6481,9.875e-05,1.085e-05,0.0,0 STARLINK-5591,1 55771U 23028AG  24094.57139395  .00001085  00000-0  98750-4 0  9998,2 55771  70.0008 202.2916 0003028 267.4331  92.6481 14.98328386 60911,6950.198,96.107,574.167,569.958,0.0
55771.0,STARLINK-5591,PAYLOAD,2024-04-03 16:55:04,14.98326874,0.0003058,70.0008,201.9548,267.347,92.7339,7.6398e-05,8.19e-06,0.0,0 STARLINK-5591,1 55771U 23028AG  24094.70491562  .00000819  00000-0  76398-4 0  9998,2 55771  70.0008 201.9548 0003058 267.3470  92.7339 14.98326874 60939,6950.203,96.107,574.193,569.942,0.0
55771.0,STARLINK-5591,PAYLOAD,2024-04-04 13:44:46,14.98364251,0.0003143,70.0008,199.7681,271.0921,88.9878,0.00027427,3.184e-05,0.0,0 STARLINK-5591,1 55771U 23028AG  24095.57276260  .00003184  00000-0  27427-3 0  9996,2 55771  70.0008 199.7681 0003143 271.0921  88.9878 14.98364251 61060,6950.087,96.105,574.136,569.768,0.0
55771.0,STARLINK-5591,PAYLOAD,2024-04-04 16:57:02,14.98364804,0.0003087,70.0007,199.4311,270.1229,89.9576,0.00029415,3.422e-05,0.0,0 STARLINK-5591,1 55771U 23028AG  24095.70627958  .00003422  00000-0  29415-3 0  9999,2 55771  70.0007 199.4311 0003087 270.1229  89.9576 14.98364804 61086,6950.085,96.105,574.096,569.805,0.0
55771.0,STARLINK-5591,PAYLOAD,2024-04-05 13:46:49,14.98334025,0.0003327,70.0004,197.2426,269.2381,90.8397,-1.9596e-05,-3.27e-06,0.0,0 STARLINK-5591,1 55771U 23028AG  24096.57417909 -.00000327  00000-0 -19596-4 0  9991,2 55771  70.0004 197.2426 0003327 269.2381  90.8397 14.98334025 61210,6950.18,96.107,574.358,569.733,0.0
55771.0,STARLINK-5591,PAYLOAD,2024-04-05 16:59:05,14.98335283,0.0003257,70.0005,196.9061,268.1844,91.8942,-6.4401e-06,-1.7e-06,0.0,0 STARLINK-5591,1 55771U 23028AG  24096.70769729 -.00000170  00000-0 -64401-5 0  9998,2 55771  70.0005 196.9061 0003257 268.1844  91.8942 14.98335283 61232,6950.177,96.107,574.305,569.778,0.0
55771.0,STARLINK-5591,PAYLOAD,2024-04-06 09:00:27,14.98327952,0.0002864,70.0022,195.2246,268.4645,91.6186,-0.00040179,-4.883e-05,0.0,0 STARLINK-5591,1 55771U 23028AG  24097.37531576 -.00004883  00000-0 -40179-3 0  9998,2 55771  70.0022 195.2246 0002864 268.4645  91.6186 14.98327952 61336,6950.199,96.107,574.055,570.074,0.0
55771.0,STARLINK-5591,PAYLOAD,2024-04-07 09:02:27,14.98320694,0.0003401,70.0,192.6974,273.2183,86.8587,-3.9848e-05,-5.68e-06,0.0,0 STARLINK-5591,1 55771U 23028AG  24098.37671289 -.00000568  00000-0 -39848-4 0  9993,2 55771  70.0000 192.6974 0003401 273.2183  86.8587 14.98320694 61483,6950.222,96.108,574.45,569.723,0.0
55771.0,STARLINK-5591,PAYLOAD,2024-04-07 12:14:44,14.9832121,0.0003323,70.0005,192.3622,269.913,90.1648,1.8727e-05,1.3e-06,0.0,0 STARLINK-5591,1 55771U 23028AG  24098.51023172  .00000130  00000-0  18727-4 0  9997,2 55771  70.0005 192.3622 0003323 269.9130  90.1648 14.98321210 61506,6950.22,96.108,574.395,569.776,0.0
55771.0,STARLINK-5591,PAYLOAD,2024-04-07 23:27:40,14.98327688,0.0003303,70.0002,191.1836,271.3145,88.7636,3.8728e-05,3.69e-06,0.0,0 STARLINK-5591,1 55771U 23028AG  24098.97754918  .00000369  00000-0  38728-4 0  9993,2 55771  70.0002 191.1836 0003303 271.3145  88.7636 14.98327688 61570,6950.2,96.107,574.361,569.769,0.0
55771.0,STARLINK-5591,PAYLOAD,2024-04-08 12:16:44,14.98328142,0.0003381,70.0002,189.8374,271.9087,88.1685,0.00022961,2.648e-05,0.0,0 STARLINK-5591,1 55771U 23028AG  24099.51162636  .00002648  00000-0  22961-3 0  9997,2 55771  70.0002 189.8374 0003381 271.9087  88.1685 14.98328142 61651,6950.199,96.107,574.413,569.714,0.0
55771.0,STARLINK-5591,PAYLOAD,2024-04-08 23:29:41,14.98332232,0.0003325,70.0007,188.6599,272.0336,88.0442,0.00011783,1.313e-05,0.0,0 STARLINK-5591,1 55771U 23028AG  24099.97894773  .00001313  00000-0  11783-3 0  9999,2 55771  70.0007 188.6599 0003325 272.0336  88.0442 14.98332232 61722,6950.186,96.107,574.362,569.74,0.0
55771.0,STARLINK-5591,PAYLOAD,2024-04-09 12:18:45,14.98332402,0.000332,70.0003,187.3128,270.9708,89.1071,6.4291e-05,6.74e-06,0.0,0 STARLINK-5591,1 55771U 23028AG  24100.51302867  .00000674  00000-0  64291-4 0  9992,2 55771  70.0003 187.3128 0003320 270.9708  89.1071 14.98332402 61805,6950.185,96.107,574.358,569.743,0.0
55771.0,STARLINK-5591,PAYLOAD,2024-04-10 12:20:45,14.98341092,0.0003216,70.0003,184.7881,269.9342,90.1449,1.6178e-05,1e-06,0.0,0 STARLINK-5591,1 55771U 23028AG  24101.51442078  .00000100  00000-0  16178-4 0  9997,2 55771  70.0003 184.7881 0003216 269.9342  90.1449 14.98341092 61950,6950.159,96.106,574.259,569.788,0.0
55771.0,STARLINK-5591,PAYLOAD,2024-04-11 04:22:07,14.98328134,0.0003363,70.0002,183.1056,270.0007,90.0767,-1.3977e-05,-2.6e-06,0.0,0 STARLINK-5591,1 55771U 23028AG  24102.18202744 -.00000260  00000-0 -13977-4 0  9998,2 55771  70.0002 183.1056 0003363 270.0007  90.0767 14.98328134 62056,6950.199,96.107,574.401,569.726,0.0
55771.0,STARLINK-5591,PAYLOAD,2024-04-11 13:58:55,14.98327952,0.0003475,69.9999,182.0947,270.0513,90.0248,-5.8004e-05,-7.85e-06,0.0,0 STARLINK-5591,1 55771U 23028AG  24102.58258948 -.00000785  00000-0 -58004-4 0  9991,2 55771  69.9999 182.0947 0003475 270.0513  90.0248 14.98327952 62119,6950.199,96.107,574.479,569.649,0.0
55771.0,STARLINK-5591,PAYLOAD,2024-04-11 21:59:35,14.98328736,0.0003368,70.0004,181.2535,270.234,89.8433,-3.7427e-05,-5.4e-06,0.0,0 STARLINK-5591,1 55771U 23028AG  24102.91638872 -.00000540  00000-0 -37427-4 0  9991,2 55771  70.0004 181.2535 0003368 270.2340  89.8433 14.98328736 62162,6950.197,96.107,574.403,569.721,0.0
55771.0,STARLINK-5591,PAYLOAD,2024-04-12 04:24:08,14.98329553,0.0003396,70.0002,180.5802,270.5873,89.4897,-4.2594e-05,-6.01e-06,0.0,0 STARLINK-5591,1 55771U 23028AG  24103.18342850 -.00000601  00000-0 -42594-4 0  9998,2 55771  70.0002 180.5802 0003396 270.5873  89.4897 14.98329553 62207,6950.194,96.107,574.42,569.699,0.0
55771.0,STARLINK-5591,PAYLOAD,2024-04-12 14:00:56,14.9833241,0.0003329,70.0004,179.5705,270.1474,89.9304,-5.6093e-06,-1.6e-06,0.0,0 STARLINK-5591,1 55771U 23028AG  24103.58398558 -.00000160  00000-0 -56093-5 0  9998,2 55771  70.0004 179.5705 0003329 270.1474  89.9304 14.98332410 62268,6950.185,96.107,574.364,569.737,0.0
55771.0,STARLINK-5591,PAYLOAD,2024-04-13 12:26:49,14.98328432,0.0003315,70.0003,177.2142,269.1044,90.9735,7.2167e-05,7.68e-06,0.0,0 STARLINK-5591,1 55771U 23028AG  24104.51862607  .00000768  00000-0  72167-4 0  9994,2 55771  70.0003 177.2142 0003315 269.1044  90.9735 14.98328432 62408,6950.198,96.107,574.367,569.759,0.0
55771.0,STARLINK-5591,PAYLOAD,2024-04-13 14:02:57,14.98329745,0.0003307,70.0003,177.046,269.0917,90.9863,8.4954e-05,9.21e-06,0.0,0 STARLINK-5591,1 55771U 23028AG  24104.58538487  .00000921  00000-0  84954-4 0  9995,2 55771  70.0003 177.0460 0003307 269.0917  90.9863 14.98329745 62419,6950.194,96.107,574.357,569.76,0.0
